LEMUR-2-ROUNDTRIPPER    
1 62711U 25009DG  26189.18463662  .00005736  00000+0  41779-3 0  9996
2 62711  97.7226 271.8364 0004413  80.0579 280.1144 15.04150285 80788
LEMUR-2-MYNAMEISJEFF    
1 62712U 25009DH  26189.18308416  .00005842  00000+0  42555-3 0  9993
2 62712  97.7281 272.2282 0003587 114.0456 246.1146 15.04142481 80780
LEMUR-2-LEIA-PHILIP     
1 63246U 25052AN  26188.51864188  .00001930  00000+0  17109-3 0  9994
2 63246  97.6815  80.1253 0004889 138.7865 221.3727 14.97376769 71714
LEMUR-2-LIA-MARTIN      
1 63248U 25052AQ  26187.64800424  .00004626  00000+0  39684-3 0  9999
2 63248  97.6861  79.7730 0005203 111.5295 248.6482 14.97976249 71593
LEMUR-2-DELOITTE-1      
1 63259U 25052BB  26188.69600532  .00002391  00000+0  20879-3 0  9998
2 63259  97.6883  81.1366 0002285  66.1516 293.9945 14.97747072 71765
LEMUR-2-EMERSONROSE     
1 63261U 25052BD  26188.18377091  .00003566  00000+0  29729-3 0  9994
2 63261  97.6871  81.2273 0002748  73.8140 286.3386 14.99240847 71737
LEMUR-2-MARACHE-FRAN    
1 63262U 25052BE  26189.14572795  .00002088  00000+0  17143-3 0  9995
2 63262  97.6862  82.5352 0004530 284.8117  75.2604 15.00285042 71905
LEMUR-2-THEFALCONER     
1 63264U 25052BG  26189.12631103  .00002497  00000+0  21901-3 0  9995
2 63264  97.6848  81.1574 0000863  25.7848 334.3417 14.97538909 71820
LEMUR-2-UNTITLED-SC     
1 63351U 25061A   26189.17844650  .00001687  00000+0  97297-4 0  9992
2 63351  97.5647 164.3897 0018471 186.9019 173.1961 15.13616180 70761
LEMUR-2-ESPERANZA       
1 63352U 25061B   26188.88986125  .00002920  00000+0  16522-3 0  9996
2 63352  97.5652 164.2012 0018064 187.3482 172.7488 15.13722365 70721
LEMUR-2-KREMPEL-BRO2    
1 63353U 25061C   26189.17522446  .00001800  00000+0  10206-3 0  9991
2 63353  97.5700 165.0451 0019251 178.9047 181.2230 15.14147138 70780
LEMUR-2-THERMORAPTOR    
1 63354U 25061D   26188.89183979  .00002387  00000+0  13379-3 0  9999
2 63354  97.5705 164.8428 0018983 178.8540 181.2738 15.14228290 70743
LEMUR-2-NEUROSPICY      
1 63355U 25061E   26188.92800020  .00002176  00000+0  12202-3 0  9997
2 63355  97.5634 164.4889 0016732 181.4303 178.6884 15.14348253 70754
LEMUR-2-TILLINFINITY    
1 63356U 25061F   26188.88921987  .00002470  00000+0  13570-3 0  9995
2 63356  97.5619 164.7554 0018298 170.3132 189.8456 15.14930000 70774
LEMUR-2-KREMPEL-BRO1    
1 63357U 25061G   26188.93139922  .00002285  00000+0  12643-3 0  9996
2 63357  97.5620 164.7076 0018966 171.3794 188.7767 15.14739439 70779
LEMUR-2-LANGER2SPACE    
1 63358U 25061H   26188.96206074  .00002236  00000+0  12498-3 0  9997
2 63358  97.5622 164.5436 0016637 179.7779 180.3463 15.14431885 70762
LEMUR-2-BALTO           
1 63395U 25052BH  26188.93021130  .00003178  00000+0  25813-3 0  9994
2 63395  97.6928  82.3031 0005582 356.6122   3.5062 15.00317981 71875
LEMUR-2-KRISH           
1 64561U 25135AK  26188.80500465  .00003724  00000+0  33367-3 0  9991
2 64561  97.7759 303.5424 0001746 100.4811 259.6607 14.96405512 57006
LEMUR-2-HUBBLE-4        
1 64565U 25135AP  26189.17419980  .00000991  00000+0  99077-4 0  9991
2 64565  97.7713 302.8349 0002052 182.0397 178.0815 14.93670526 57005
LEMUR-2-SEJONG-2        
1 64586U 25135BL  26189.16256242  .00001919  00000+0  17242-3 0  9997
2 64586  97.7704 304.0438 0003290 250.5196 109.5670 14.96877903 57081
LEMUR-2-HUBBLE-5        
1 64840U 25135BT  26188.85068199  .00001232  00000+0  12032-3 0  9997
2 64840  97.7734 303.1762 0004100 267.1064  92.9687 14.94196623 56999
LEMUR-2-KARENDARRELL    
1 64841U 25135BU  26188.86083480  .00004459  00000+0  35888-3 0  9997
2 64841  97.7695 305.0393 0011715 127.9699 232.2584 15.00430811 57112
LEMUR-2-LUCILLE-ROSE    
1 65403U 25135BV  26188.83425461  .00003640  00000+0  29371-3 0  9999
2 65403  97.7715 305.0478 0013953 211.7605 148.2778 15.00429301 51734
LEMUR-2-AFFIE-WAUWIE    
1 66295U 25248C   26186.82496654  .00022785  00000+0  82702-3 0  9991
2 66295  45.3926  13.9564 0008364 202.7682 157.2838 15.27976863 37441
OTTER SDM               
1 66678U 25276N   26189.18517115  .00003573  00000+0  16906-3 0  9992
2 66678  97.4201 262.3147 0004260 286.1567  73.9199 15.20000667 33607
LEMUR-2-STAS-GORBUK     
1 66686U 25276W   26189.13893838  .00003366  00000+0  16125-3 0  9998
2 66686  97.4237 262.3219 0003436 283.8366  76.2486 15.19609818 33594
LEMUR-2-TEODOR          
1 66768U 25276DG  26189.16548940  .00003538  00000+0  16135-3 0  9995
2 66768  97.4140 262.6109 0002337  95.0159 265.1344 15.21286255 33637
LEMUR-2-LAILA           
1 66776U 25276DQ  26188.74173508  .00004166  00000+0  18818-3 0  9999
2 66776  97.4165 262.3276 0002903 105.7296 254.4260 15.21509372 33574
LEMUR-2-CELIJO-SB-PK    
1 66781U 25276DW  26189.18172340  .00003451  00000+0  28027-3 0  9996
2 66781  97.5198 259.2673 0007366  81.5560 278.6499 15.00236781 25779
LEMUR-2-FINNIAN         
1 66782U 25276DX  26188.15331084  .00002687  00000+0  21743-3 0  9993
2 66782  97.5346 258.5193 0008123  28.2723 331.8940 15.00553279 22993
