OBJECT_NAME,OBJECT_ID,EPOCH,MEAN_MOTION,ECCENTRICITY,INCLINATION,RA_OF_ASC_NODE,ARG_OF_PERICENTER,MEAN_ANOMALY,EPHEMERIS_TYPE,CLASSIFICATION_TYPE,NORAD_CAT_ID,ELEMENT_SET_NO,REV_AT_EPOCH,BSTAR,MEAN_MOTION_DOT,MEAN_MOTION_DDOT
LEMUR-2-ROUNDTRIPPER,2025-009DG,2026-07-08T04:25:52.603968,15.04150285,.0004413,97.7226,271.8364,80.0579,280.1144,0,U,62711,999,8078,.41779E-3,.5736E-4,0
LEMUR-2-MYNAMEISJEFF,2025-009DH,2026-07-08T04:23:38.471424,15.04142481,.0003587,97.7281,272.2282,114.0456,246.1146,0,U,62712,999,8078,.42555E-3,.5842E-4,0
LEMUR-2-LEIA-PHILIP,2025-052AN,2026-07-07T12:26:50.658432,14.97376769,.00048895,97.6815,80.1253,138.7865,221.3727,0,U,63246,999,7171,.17109045E-3,.193E-4,0
LEMUR-2-LIA-MARTIN,2025-052AQ,2026-07-06T15:33:07.566336,14.97976249,.00052032,97.6861,79.7730,111.5295,248.6482,0,U,63248,999,7159,.39684422E-3,.4626E-4,0
LEMUR-2-DELOITTE-1,2025-052BB,2026-07-07T16:42:14.859648,14.97747072,.0002285,97.6883,81.1366,66.1516,293.9945,0,U,63259,999,7176,.20879E-3,.2391E-4,0
LEMUR-2-EMERSONROSE,2025-052BD,2026-07-07T04:24:37.806624,14.99240847,.00027484,97.6871,81.2273,73.8140,286.3386,0,U,63261,999,7173,.29728698E-3,.3566E-4,0
LEMUR-2-MARACHE-FRAN,2025-052BE,2026-07-08T03:29:50.894880,15.00285042,.000453,97.6862,82.5352,284.8117,75.2604,0,U,63262,999,7190,.17143E-3,.2088E-4,0
LEMUR-2-THEFALCONER,2025-052BG,2026-07-08T03:01:53.272992,14.97538909,.0000863,97.6848,81.1574,25.7848,334.3417,0,U,63264,999,7182,.21901E-3,.2497E-4,0
LEMUR-2-UNTITLED-SC,2025-061A,2026-07-08T04:16:57.777600,15.13616180,.0018471,97.5647,164.3897,186.9019,173.1961,0,U,63351,999,7076,.97297E-4,.1687E-4,0
LEMUR-2-ESPERANZA,2025-061B,2026-07-07T21:21:24.012000,15.13722365,.0018064,97.5652,164.2012,187.3482,172.7488,0,U,63352,999,7072,.16522E-3,.292E-4,0
LEMUR-2-KREMPEL-BRO2,2025-061C,2026-07-08T04:12:19.393344,15.14147138,.0019251,97.5700,165.0451,178.9047,181.2230,0,U,63353,999,7078,.10206E-3,.18E-4,0
LEMUR-2-THERMORAPTOR,2025-061D,2026-07-07T21:24:14.957856,15.14228290,.0018983,97.5705,164.8428,178.8540,181.2738,0,U,63354,999,7074,.13379E-3,.2387E-4,0
LEMUR-2-NEUROSPICY,2025-061E,2026-07-07T22:16:19.217280,15.14348253,.0016732,97.5634,164.4889,181.4303,178.6884,0,U,63355,999,7075,.12202E-3,.2176E-4,0
LEMUR-2-TILLINFINITY,2025-061F,2026-07-07T21:20:28.596768,15.14930000,.0018298,97.5619,164.7554,170.3132,189.8456,0,U,63356,999,7077,.1357E-3,.247E-4,0
LEMUR-2-KREMPEL-BRO1,2025-061G,2026-07-07T22:21:12.892608,15.14739439,.0018966,97.5620,164.7076,171.3794,188.7767,0,U,63357,999,7077,.12643E-3,.2285E-4,0
LEMUR-2-LANGER2SPACE,2025-061H,2026-07-07T23:05:22.047936,15.14431885,.0016637,97.5622,164.5436,179.7779,180.3463,0,U,63358,999,7076,.12498E-3,.2236E-4,0
LEMUR-2-BALTO,2025-052BH,2026-07-07T22:19:30.256320,15.00317981,.0005582,97.6928,82.3031,356.6122,3.5062,0,U,63395,999,7187,.25813E-3,.3178E-4,0
LEMUR-2-KRISH,2025-135AK,2026-07-07T19:19:12.401760,14.96405512,.0001746,97.7759,303.5424,100.4811,259.6607,0,U,64561,999,5700,.33367E-3,.3724E-4,0
LEMUR-2-HUBBLE-4,2025-135AP,2026-07-08T04:10:50.862720,14.93670526,.0002052,97.7713,302.8349,182.0397,178.0815,0,U,64565,999,5700,.99077E-4,.991E-5,0
LEMUR-2-SEJONG-2,2025-135BL,2026-07-08T03:54:05.393088,14.96877903,.000329,97.7704,304.0438,250.5196,109.5670,0,U,64586,999,5708,.17242E-3,.1919E-4,0
LEMUR-2-HUBBLE-5,2025-135BT,2026-07-07T20:24:58.923936,14.94196623,.00041,97.7734,303.1762,267.1064,92.9687,0,U,64840,999,5699,.12032E-3,.1232E-4,0
LEMUR-2-KARENDARRELL,2025-135BU,2026-07-07T20:39:36.126720,15.00430811,.0011715,97.7695,305.0393,127.9699,232.2584,0,U,64841,999,5711,.35888E-3,.4459E-4,0
LEMUR-2-LUCILLE-ROSE,2025-135BV,2026-07-07T20:01:19.598304,15.00429301,.0013953,97.7715,305.0478,211.7605,148.2778,0,U,65403,999,5173,.29371E-3,.364E-4,0
LEMUR-2-AFFIE-WAUWIE,2025-248C,2026-07-05T19:47:57.109056,15.27976863,.0008364,45.3926,13.9564,202.7682,157.2838,0,U,66295,999,3744,.82702E-3,.22785E-3,0
OTTER SDM,2025-276N,2026-07-08T04:26:38.787360,15.20000667,.000426,97.4201,262.3147,286.1567,73.9199,0,U,66678,999,3360,.16906E-3,.3573E-4,0
LEMUR-2-STAS-GORBUK,2025-276W,2026-07-08T03:20:04.276032,15.19609818,.0003436,97.4237,262.3219,283.8366,76.2486,0,U,66686,999,3359,.16125E-3,.3366E-4,0
LEMUR-2-TEODOR,2025-276DG,2026-07-08T03:58:18.284160,15.21286255,.0002337,97.4140,262.6109,95.0159,265.1344,0,U,66768,999,3363,.16135E-3,.3538E-4,0
LEMUR-2-LAILA,2025-276DQ,2026-07-07T17:48:05.910912,15.21509372,.0002903,97.4165,262.3276,105.7296,254.4260,0,U,66776,999,3357,.18818E-3,.4166E-4,0
LEMUR-2-CELIJO-SB-PK,2025-276DW,2026-07-08T04:21:40.901760,15.00236781,.0007366,97.5198,259.2673,81.5560,278.6499,0,U,66781,999,2577,.28027E-3,.3451E-4,0
LEMUR-2-FINNIAN,2025-276DX,2026-07-07T03:40:46.056576,15.00553279,.00081236,97.5346,258.5193,28.2723,331.8940,0,U,66782,999,2299,.21742572E-3,.2687E-4,0
